{
  "suggestions": [
    {
      "street_line": "960 Pine St",
      "secondary": "Apt 1",
      "city": "San Francisco",
      "state": "CA",
      "zipcode": "94108",
      "entries": 1
    },
    {
      "street_line": "960 Pine St",
      "secondary": "Apt 2",
      "city": "San Francisco",
      "state": "CA",
      "zipcode": "94108",
      "entries": 1
    },
    {
      "street_line": "960 Pine St",
      "secondary": "Apt 3",
      "city": "San Francisco",
      "state": "CA",
      "zipcode": "94108",
      "entries": 1
    },
    {
      "street_line": "960 Pine St",
      "secondary": "Apt 4",
      "city": "San Francisco",
      "state": "CA",
      "zipcode": "94108",
      "entries": 1
    },
    {
      "street_line": "960 Pine St",
      "secondary": "Apt 21",
      "city": "San Francisco",
      "state": "CA",
      "zipcode": "94108",
      "entries": 1
    },
    {
      "street_line": "960 Pine St",
      "secondary": "Apt 22",
      "city": "San Francisco",
      "state": "CA",
      "zipcode": "94108",
      "entries": 1
    },
    {
      "street_line": "960 Pine St",
      "secondary": "Apt 23",
      "city": "San Francisco",
      "state": "CA",
      "zipcode": "94108",
      "entries": 1
    },
    {
      "street_line": "960 Pine St",
      "secondary": "Apt 24",
      "city": "San Francisco",
      "state": "CA",
      "zipcode": "94108",
      "entries": 1
    },
    {
      "street_line": "960 Pine St",
      "secondary": "Apt 31",
      "city": "San Francisco",
      "state": "CA",
      "zipcode": "94108",
      "entries": 1
    },
    {
      "street_line": "960 Pine St",
      "secondary": "Apt 32",
      "city": "San Francisco",
      "state": "CA",
      "zipcode": "94108",
      "entries": 1
    },
    {
      "street_line": "960 Pine St",
      "secondary": "Apt 33",
      "city": "San Francisco",
      "state": "CA",
      "zipcode": "94108",
      "entries": 1
    },
    {
      "street_line": "960 Pine St",
      "secondary": "Apt 34",
      "city": "San Francisco",
      "state": "CA",
      "zipcode": "94108",
      "entries": 1
    }
  ]
}
